{
  "type": "FeatureCollection",
  "features": [
    {
      "type": "Feature",
      "properties": {
        "norad_id": 66350,
        "name": "STARLINK-35829",
        "group": "last-30-days",
        "lat": -32.55893276819902,
        "lon": 168.7576686491256,
        "alt_km": 385.60931248019733,
        "timestamp": "2025-12-03T15:48:01.918107+00:00",
        "meta_object_name": "STARLINK-35829",
        "meta_object_id": "2025-254C",
        "meta_epoch": "2025-12-03T08:00:01.999872",
        "meta_mean_motion": 15.63788835,
        "meta_eccentricity": 0.00015177,
        "meta_inclination": 53.1599,
        "meta_ra_of_asc_node": 321.7429,
        "meta_arg_of_pericenter": 84.0447,
        "meta_mean_anomaly": 108.3064,
        "meta_ephemeris_type": 0,
        "meta_classification_type": "U",
        "meta_norad_cat_id": 66350,
        "meta_element_set_no": 999,
        "meta_rev_at_epoch": 541,
        "meta_bstar": -0.023993973,
        "meta_mean_motion_dot": -0.02011024,
        "meta_mean_motion_ddot": 0,
        "tle_line1": "1 66350U 25254C   25337.33335648 -.02011024  00000+0 -23994-1 0  9992",
        "tle_line2": "2 66350  53.1599 321.7429 0001517  84.0447 108.3064 15.63788835  5419"
      },
      "geometry": {
        "type": "Point",
        "coordinates": [
          168.7576686491256,
          -32.55893276819902
        ]
      }
    },
    {
      "type": "Feature",
      "properties": {
        "norad_id": 66351,
        "name": "STARLINK-35828",
        "group": "last-30-days",
        "lat": -33.894581111950075,
        "lon": 170.3969142422945,
        "alt_km": 385.6729969398848,
        "timestamp": "2025-12-03T15:48:01.918119+00:00",
        "meta_object_name": "STARLINK-35828",
        "meta_object_id": "2025-254D",
        "meta_epoch": "2025-12-03T08:00:01.999872",
        "meta_mean_motion": 15.63768158,
        "meta_eccentricity": 0.00014011,
        "meta_inclination": 53.1598,
        "meta_ra_of_asc_node": 321.7388,
        "meta_arg_of_pericenter": 83.3672,
        "meta_mean_anomaly": 110.9195,
        "meta_ephemeris_type": 0,
        "meta_classification_type": "U",
        "meta_norad_cat_id": 66351,
        "meta_element_set_no": 999,
        "meta_rev_at_epoch": 538,
        "meta_bstar": -0.023756332,
        "meta_mean_motion_dot": -0.01992003,
        "meta_mean_motion_ddot": 0,
        "tle_line1": "1 66351U 25254D   25337.33335648 -.01992003  00000+0 -23756-1 0  9993",
        "tle_line2": "2 66351  53.1598 321.7388 0001401  83.3672 110.9195 15.63768158  5383"
      },
      "geometry": {
        "type": "Point",
        "coordinates": [
          170.3969142422945,
          -33.894581111950075
        ]
      }
    },
    {
      "type": "Feature",
      "properties": {
        "norad_id": 66352,
        "name": "STARLINK-35850",
        "group": "last-30-days",
        "lat": -35.205068378131436,
        "lon": 172.08373921586752,
        "alt_km": 385.75114777543877,
        "timestamp": "2025-12-03T15:48:01.918136+00:00",
        "meta_object_name": "STARLINK-35850",
        "meta_object_id": "2025-254E",
        "meta_epoch": "2025-12-03T08:00:01.999872",
        "meta_mean_motion": 15.63788943,
        "meta_eccentricity": 0.00014511,
        "meta_inclination": 53.1601,
        "meta_ra_of_asc_node": 321.7345,
        "meta_arg_of_pericenter": 85.991,
        "meta_mean_anomaly": 110.1949,
        "meta_ephemeris_type": 0,
        "meta_classification_type": "U",
        "meta_norad_cat_id": 66352,
        "meta_element_set_no": 999,
        "meta_rev_at_epoch": 536,
        "meta_bstar": -0.023998896,
        "meta_mean_motion_dot": -0.02011341,
        "meta_mean_motion_ddot": 0,
        "tle_line1": "1 66352U 25254E   25337.33335648 -.02011341  00000+0 -23999-1 0  9991",
        "tle_line2": "2 66352  53.1601 321.7345 0001451  85.9910 110.1949 15.63788943  5361"
      },
      "geometry": {
        "type": "Point",
        "coordinates": [
          172.08373921586752,
          -35.205068378131436
        ]
      }
    },
    {
      "type": "Feature",
      "properties": {
        "norad_id": 66353,
        "name": "STARLINK-35869",
        "group": "last-30-days",
        "lat": -36.492058239505944,
        "lon": 173.82725689266263,
        "alt_km": 385.85548727864625,
        "timestamp": "2025-12-03T15:48:01.918147+00:00",
        "meta_object_name": "STARLINK-35869",
        "meta_object_id": "2025-254F",
        "meta_epoch": "2025-12-03T08:00:01.999872",
        "meta_mean_motion": 15.63788588,
        "meta_eccentricity": 0.00014328,
        "meta_inclination": 53.16,
        "meta_ra_of_asc_node": 321.7303,
        "meta_arg_of_pericenter": 83.7192,
        "meta_mean_anomaly": 114.385,
        "meta_ephemeris_type": 0,
        "meta_classification_type": "U",
        "meta_norad_cat_id": 66353,
        "meta_element_set_no": 999,
        "meta_rev_at_epoch": 541,
        "meta_bstar": -0.024012591,
        "meta_mean_motion_dot": -0.02012308,
        "meta_mean_motion_ddot": 0,
        "tle_line1": "1 66353U 25254F   25337.33335648 -.02012308  00000+0 -24013-1 0  9994",
        "tle_line2": "2 66353  53.1600 321.7303 0001432  83.7192 114.3850 15.63788588  5410"
      },
      "geometry": {
        "type": "Point",
        "coordinates": [
          173.82725689266263,
          -36.492058239505944
        ]
      }
    },
    {
      "type": "Feature",
      "properties": {
        "norad_id": 66354,
        "name": "STARLINK-35895",
        "group": "last-30-days",
        "lat": 38.770322363375364,
        "lon": -2.4756034780319425,
        "alt_km": 413.04823933811986,
        "timestamp": "2025-12-03T15:48:01.918158+00:00",
        "meta_object_name": "STARLINK-35895",
        "meta_object_id": "2025-254G",
        "meta_epoch": "2025-12-03T08:00:01.999872",
        "meta_mean_motion": 15.49285556,
        "meta_eccentricity": 0.00015198,
        "meta_inclination": 53.1593,
        "meta_ra_of_asc_node": 322.0535,
        "meta_arg_of_pericenter": 95.1842,
        "meta_mean_anomaly": 302.7032,
        "meta_ephemeris_type": 0,
        "meta_classification_type": "U",
        "meta_norad_cat_id": 66354,
        "meta_element_set_no": 999,
        "meta_rev_at_epoch": 541,
        "meta_bstar": -0.00011769668,
        "meta_mean_motion_dot": -6.983e-05,
        "meta_mean_motion_ddot": 0,
        "tle_line1": "1 66354U 25254G   25337.33335648 -.00006983  00000+0 -11770-3 0  9993",
        "tle_line2": "2 66354  53.1593 322.0535 0001519  95.1842 302.7032 15.49285556  5414"
      },
      "geometry": {
        "type": "Point",
        "coordinates": [
          -2.4756034780319425,
          38.770322363375364
        ]
      }
    },
    {
      "type": "Feature",
      "properties": {
        "norad_id": 66355,
        "name": "STARLINK-35861",
        "group": "last-30-days",
        "lat": -38.98355770437407,
        "lon": 177.49150183297021,
        "alt_km": 386.0117670524014,
        "timestamp": "2025-12-03T15:48:01.918211+00:00",
        "meta_object_name": "STARLINK-35861",
        "meta_object_id": "2025-254H",
        "meta_epoch": "2025-12-03T08:00:01.999872",
        "meta_mean_motion": 15.63787701,
        "meta_eccentricity": 0.00014001,
        "meta_inclination": 53.1598,
        "meta_ra_of_asc_node": 321.7223,
        "meta_arg_of_pericenter": 81.8318,
        "meta_mean_anomaly": 120.1052,
        "meta_ephemeris_type": 0,
        "meta_classification_type": "U",
        "meta_norad_cat_id": 66355,
        "meta_element_set_no": 999,
        "meta_rev_at_epoch": 541,
        "meta_bstar": -0.023991094,
        "meta_mean_motion_dot": -0.02010641,
        "meta_mean_motion_ddot": 0,
        "tle_line1": "1 66355U 25254H   25337.33335648 -.02010641  00000+0 -23991-1 0  9998",
        "tle_line2": "2 66355  53.1598 321.7223 0001400  81.8318 120.1052 15.63787701  5418"
      },
      "geometry": {
        "type": "Point",
        "coordinates": [
          177.49150183297021,
          -38.98355770437407
        ]
      }
    },
    {
      "type": "Feature",
      "properties": {
        "norad_id": 66356,
        "name": "STARLINK-35851",
        "group": "last-30-days",
        "lat": -40.185597322536026,
        "lon": 179.42151188634014,
        "alt_km": 386.09704954178414,
        "timestamp": "2025-12-03T15:48:01.918221+00:00",
        "meta_object_name": "STARLINK-35851",
        "meta_object_id": "2025-254J",
        "meta_epoch": "2025-12-03T08:00:01.999872",
        "meta_mean_motion": 15.63786525,
        "meta_eccentricity": 0.00014738,
        "meta_inclination": 53.1597,
        "meta_ra_of_asc_node": 321.7178,
        "meta_arg_of_pericenter": 85.5431,
        "meta_mean_anomaly": 118.3118,
        "meta_ephemeris_type": 0,
        "meta_classification_type": "U",
        "meta_norad_cat_id": 66356,
        "meta_element_set_no": 999,
        "meta_rev_at_epoch": 541,
        "meta_bstar": -0.023977073,
        "meta_mean_motion_dot": -0.02009585,
        "meta_mean_motion_ddot": 0,
        "tle_line1": "1 66356U 25254J   25337.33335648 -.02009585  00000+0 -23977-1 0  9998",
        "tle_line2": "2 66356  53.1597 321.7178 0001473  85.5431 118.3118 15.63786525  5419"
      },
      "geometry": {
        "type": "Point",
        "coordinates": [
          179.42151188634014,
          -40.185597322536026
        ]
      }
    }
  ]
}